start=new Date('2022-02-09T00:00:00.000Z').valueOf();
sats=[{"TLE_LINE1":"1 47621U 21012B   22039.36681965  .00002216  00000-0  16767-3 0  9997","LAUNCH_DATE":"2021-02-16","EPHEMERIS_TYPE":"0","NORAD_CAT_ID":"47621","EPOCH":"2022-02-08T08:48:13.217760","SITE":"AFETR","INCLINATION":"53.0554","MEAN_ANOMALY":"295.9859","ARG_OF_PERICENTER":"64.1296","FILE":"3295096","TIME_SYSTEM":"UTC","RA_OF_ASC_NODE":"281.9439","REF_FRAME":"TEME","OBJECT_NAME":"STARLINK-1609","MEAN_ELEMENT_THEORY":"SGP4","DECAY_DATE":null,"SEMIMAJOR_AXIS":"6925.388","MEAN_MOTION_DOT":"0.00002216","CLASSIFICATION_TYPE":"U","RCS_SIZE":"LARGE","APOAPSIS":"548.371","TLE_LINE2":"2 47621  53.0554 281.9439 0001615  64.1296 295.9859 15.06387115 55364","ECCENTRICITY":"0.00016150","OBJECT_TYPE":"PAYLOAD","CENTER_NAME":"EARTH","ELEMENT_SET_NO":"999","COUNTRY_CODE":"US","MEAN_MOTION":"15.06387115","GP_ID":"195548806","PERIOD":"95.593","REV_AT_EPOCH":"5536","MEAN_MOTION_DDOT":"0.0000000000000","BSTAR":"0.00016767000000","PERIAPSIS":"546.135","OBJECT_ID":"2021-012B"},{"GP_ID":"195547569","COUNTRY_CODE":"US","MEAN_MOTION":"15.06375507","REV_AT_EPOCH":"5535","MEAN_MOTION_DDOT":"0.0000000000000","BSTAR":"0.00000640080000","PERIOD":"95.594","PERIAPSIS":"546.151","OBJECT_ID":"2021-012C","INCLINATION":"53.0553","MEAN_ANOMALY":"306.5239","ARG_OF_PERICENTER":"53.5902","FILE":"3295096","LAUNCH_DATE":"2021-02-16","TLE_LINE1":"1 47622U 21012C   22039.36314772 -.00000186  00000-0  64008-5 0  9995","NORAD_CAT_ID":"47622","EPHEMERIS_TYPE":"0","EPOCH":"2022-02-08T08:42:55.963008","SITE":"AFETR","OBJECT_NAME":"STARLINK-1645","MEAN_ELEMENT_THEORY":"SGP4","DECAY_DATE":null,"TIME_SYSTEM":"UTC","RA_OF_ASC_NODE":"281.9487","REF_FRAME":"TEME","TLE_LINE2":"2 47622  53.0553 281.9487 0001643  53.5902 306.5239 15.06375507 55356","SEMIMAJOR_AXIS":"6925.424","CLASSIFICATION_TYPE":"U","MEAN_MOTION_DOT":"-0.00000186","RCS_SIZE":"LARGE","APOAPSIS":"548.426","CENTER_NAME":"EARTH","ELEMENT_SET_NO":"999","ECCENTRICITY":"0.00016430","OBJECT_TYPE":"PAYLOAD"},{"ARG_OF_PERICENTER":"66.8446","FILE":"3295096","INCLINATION":"53.0547","MEAN_ANOMALY":"293.2728","EPOCH":"2022-02-08T12:10:33.520224","SITE":"AFETR","LAUNCH_DATE":"2021-02-16","TLE_LINE1":"1 47623U 21012D   22039.50733241  .00001646  00000-0  12941-3 0  9996","EPHEMERIS_TYPE":"0","NORAD_CAT_ID":"47623","DECAY_DATE":null,"MEAN_ELEMENT_THEORY":"SGP4","OBJECT_NAME":"STARLINK-1655","RA_OF_ASC_NODE":"216.3048","REF_FRAME":"TEME","TIME_SYSTEM":"UTC","TLE_LINE2":"2 47623  53.0547 216.3048 0001763  66.8446 293.2728 15.06392690 56299","RCS_SIZE":"LARGE","APOAPSIS":"548.457","SEMIMAJOR_AXIS":"6925.371","CLASSIFICATION_TYPE":"U","MEAN_MOTION_DOT":"0.00001646","CENTER_NAME":"EARTH","ELEMENT_SET_NO":"999","OBJECT_TYPE":"PAYLOAD","ECCENTRICITY":"0.00017630","GP_ID":"195547315","COUNTRY_CODE":"US","MEAN_MOTION":"15.06392690","BSTAR":"0.00012941000000","MEAN_MOTION_DDOT":"0.0000000000000","REV_AT_EPOCH":"5629","PERIOD":"95.593","OBJECT_ID":"2021-012D","PERIAPSIS":"546.015"},{"NORAD_CAT_ID":"47624","EPHEMERIS_TYPE":"0","TLE_LINE1":"1 47624U 21012E   22039.30230448  .00000515  00000-0  53463-4 0  9995","LAUNCH_DATE":"2021-02-16","SITE":"AFETR","EPOCH":"2022-02-08T07:15:19.107072","MEAN_ANOMALY":"294.7202","INCLINATION":"53.0550","FILE":"3295096","ARG_OF_PERICENTER":"65.3946","TIME_SYSTEM":"UTC","REF_FRAME":"TEME","RA_OF_ASC_NODE":"262.2291","MEAN_ELEMENT_THEORY":"SGP4","OBJECT_NAME":"STARLINK-1669","DECAY_DATE":null,"MEAN_MOTION_DOT":"0.00000515","CLASSIFICATION_TYPE":"U","SEMIMAJOR_AXIS":"6925.376","RCS_SIZE":"LARGE","APOAPSIS":"548.296","TLE_LINE2":"2 47624  53.0550 262.2291 0001523  65.3946 294.7202 15.06391034 55649","OBJECT_TYPE":"PAYLOAD","ECCENTRICITY":"0.00015230","ELEMENT_SET_NO":"999","CENTER_NAME":"EARTH","MEAN_MOTION":"15.06391034","COUNTRY_CODE":"US","GP_ID":"195548068","PERIOD":"95.593","MEAN_MOTION_DDOT":"0.0000000000000","REV_AT_EPOCH":"5564","BSTAR":"0.00005346300000","PERIAPSIS":"546.186","OBJECT_ID":"2021-012E"},{"TLE_LINE2":"2 47625  53.0556 281.9244 0001440  62.5587 297.5549 15.06375961 55354","CLASSIFICATION_TYPE":"U","MEAN_MOTION_DOT":"-0.00000101","SEMIMAJOR_AXIS":"6925.422","RCS_SIZE":"LARGE","APOAPSIS":"548.284","ELEMENT_SET_NO":"999","CENTER_NAME":"EARTH","OBJECT_TYPE":"PAYLOAD","ECCENTRICITY":"0.00014400","MEAN_ANOMALY":"297.5549","INCLINATION":"53.0556","FILE":"3295096","ARG_OF_PERICENTER":"62.5587","EPHEMERIS_TYPE":"0","NORAD_CAT_ID":"47625","LAUNCH_DATE":"2021-02-16","TLE_LINE1":"1 47625U 21012F   22039.37051831 -.00000101  00000-0  12152-4 0  9992","SITE":"AFETR","EPOCH":"2022-02-08T08:53:32.781984","MEAN_ELEMENT_THEORY":"SGP4","OBJECT_NAME":"STARLINK-1704","DECAY_DATE":null,"TIME_SYSTEM":"UTC","REF_FRAME":"TEME","RA_OF_ASC_NODE":"281.9244","PERIAPSIS":"546.290","OBJECT_ID":"2021-012F","GP_ID":"195548306","MEAN_MOTION":"15.06375961","COUNTRY_CODE":"US","MEAN_MOTION_DDOT":"0.0000000000000","REV_AT_EPOCH":"5535","BSTAR":"0.00001215200000","PERIOD":"95.594"},{"CENTER_NAME":"EARTH","ELEMENT_SET_NO":"999","ECCENTRICITY":"0.00016540","OBJECT_TYPE":"PAYLOAD","TLE_LINE2":"2 47626  53.0555 283.1766 0001654  59.8049 300.3104 15.06365457 55311","RCS_SIZE":"LARGE","APOAPSIS":"548.465","SEMIMAJOR_AXIS":"6925.454","CLASSIFICATION_TYPE":"U","MEAN_MOTION_DOT":"0.00007494","DECAY_DATE":null,"OBJECT_NAME":"STARLINK-1761","MEAN_ELEMENT_THEORY":"SGP4","RA_OF_ASC_NODE":"283.1766","REF_FRAME":"TEME","TIME_SYSTEM":"UTC","ARG_OF_PERICENTER":"59.8049","FILE":"3295096","INCLINATION":"53.0555","MEAN_ANOMALY":"300.3104","EPOCH":"2022-02-08T02:10:08.950368","SITE":"AFETR","TLE_LINE1":"1 47626U 21012G   22039.09038137  .00007494  00000-0  52195-3 0  9997","LAUNCH_DATE":"2021-02-16","NORAD_CAT_ID":"47626","EPHEMERIS_TYPE":"0","OBJECT_ID":"2021-012G","PERIAPSIS":"546.174","BSTAR":"0.00052195000000","MEAN_MOTION_DDOT":"0.0000000000000","REV_AT_EPOCH":"5531","PERIOD":"95.594","GP_ID":"195547069","COUNTRY_CODE":"US","MEAN_MOTION":"15.06365457"},{"COUNTRY_CODE":"US","MEAN_MOTION":"15.06420923","GP_ID":"195547816","PERIOD":"95.591","MEAN_MOTION_DDOT":"0.0000000000000","REV_AT_EPOCH":"360","BSTAR":"-0.00445050000000","PERIAPSIS":"546.172","OBJECT_ID":"2021-012H","LAUNCH_DATE":"2021-02-16","TLE_LINE1":"1 47627U 21012H   22039.58334491 -.00065997  00000-0 -44505-2 0  9993","NORAD_CAT_ID":"47627","EPHEMERIS_TYPE":"0","SITE":"AFETR","EPOCH":"2022-02-08T14:00:01.000224","INCLINATION":"53.0524","MEAN_ANOMALY":"32.5092","ARG_OF_PERICENTER":"65.0490","FILE":"3295096","TIME_SYSTEM":"UTC","RA_OF_ASC_NODE":"185.9579","REF_FRAME":"TEME","OBJECT_NAME":"STARLINK-1972","MEAN_ELEMENT_THEORY":"SGP4","DECAY_DATE":null,"SEMIMAJOR_AXIS":"6925.284","MEAN_MOTION_DOT":"-0.00065997","CLASSIFICATION_TYPE":"U","RCS_SIZE":"LARGE","APOAPSIS":"548.127","TLE_LINE2":"2 47627  53.0524 185.9579 0001412  65.0490  32.5092 15.06420923  3605","ECCENTRICITY":"0.00014120","OBJECT_TYPE":"PAYLOAD","CENTER_NAME":"EARTH","ELEMENT_SET_NO":"999"},{"OBJECT_ID":"2021-012J","PERIAPSIS":"546.178","BSTAR":"0.00013809000000","REV_AT_EPOCH":"5531","MEAN_MOTION_DDOT":"0.0000000000000","PERIOD":"95.593","GP_ID":"195548569","COUNTRY_CODE":"US","MEAN_MOTION":"15.06388640","CENTER_NAME":"EARTH","ELEMENT_SET_NO":"999","ECCENTRICITY":"0.00015460","OBJECT_TYPE":"PAYLOAD","TLE_LINE2":"2 47628  53.0538 283.3223 0001546  67.0135 293.1017 15.06388640 55312","APOAPSIS":"548.319","RCS_SIZE":"LARGE","SEMIMAJOR_AXIS":"6925.383","MEAN_MOTION_DOT":"0.00001775","CLASSIFICATION_TYPE":"U","DECAY_DATE":null,"OBJECT_NAME":"STARLINK-1973","MEAN_ELEMENT_THEORY":"SGP4","RA_OF_ASC_NODE":"283.3223","REF_FRAME":"TEME","TIME_SYSTEM":"UTC","ARG_OF_PERICENTER":"67.0135","FILE":"3295096","INCLINATION":"53.0538","MEAN_ANOMALY":"293.1017","SITE":"AFETR","EPOCH":"2022-02-08T01:27:39.247488","TLE_LINE1":"1 47628U 21012J   22039.06087092  .00001775  00000-0  13809-3 0  9995","LAUNCH_DATE":"2021-02-16","NORAD_CAT_ID":"47628","EPHEMERIS_TYPE":"0"},{"ELEMENT_SET_NO":"999","CENTER_NAME":"EARTH","ECCENTRICITY":"0.00015580","OBJECT_TYPE":"PAYLOAD","TLE_LINE2":"2 47629  53.0530 159.4603 0001558  80.4258 343.2581 15.06412213 56608","APOAPSIS":"548.255","RCS_SIZE":"LARGE","CLASSIFICATION_TYPE":"U","MEAN_MOTION_DOT":"-0.00013196","SEMIMAJOR_AXIS":"6925.311","DECAY_DATE":null,"MEAN_ELEMENT_THEORY":"SGP4","OBJECT_NAME":"STARLINK-1974","REF_FRAME":"TEME","RA_OF_ASC_NODE":"159.4603","TIME_SYSTEM":"UTC","FILE":"3295238","ARG_OF_PERICENTER":"80.4258","MEAN_ANOMALY":"343.2581","INCLINATION":"53.0530","EPOCH":"2022-02-08T22:00:01.999584","SITE":"AFETR","EPHEMERIS_TYPE":"0","NORAD_CAT_ID":"47629","LAUNCH_DATE":"2021-02-16","TLE_LINE1":"1 47629U 21012K   22039.91668981 -.00013196  00000-0 -86830-3 0  9998","OBJECT_ID":"2021-012K","PERIAPSIS":"546.097","BSTAR":"-0.00086830000000","REV_AT_EPOCH":"5660","MEAN_MOTION_DDOT":"0.0000000000000","PERIOD":"95.591","GP_ID":"195577271","MEAN_MOTION":"15.06412213","COUNTRY_CODE":"US"},{"PERIAPSIS":"546.243","OBJECT_ID":"2021-012L","PERIOD":"95.593","MEAN_MOTION_DDOT":"0.0000000000000","REV_AT_EPOCH":"5561","BSTAR":"0.00009330700000","MEAN_MOTION":"15.06386565","COUNTRY_CODE":"US","GP_ID":"195547570","OBJECT_TYPE":"PAYLOAD","ECCENTRICITY":"0.00014610","ELEMENT_SET_NO":"999","CENTER_NAME":"EARTH","CLASSIFICATION_TYPE":"U","MEAN_MOTION_DOT":"0.00001108","SEMIMAJOR_AXIS":"6925.390","APOAPSIS":"548.267","RCS_SIZE":"LARGE","TLE_LINE2":"2 47630  53.0563 262.1311 0001461  58.7290 301.3842 15.06386565 55616","TIME_SYSTEM":"UTC","REF_FRAME":"TEME","RA_OF_ASC_NODE":"262.1311","OBJECT_NAME":"STARLINK-1983","MEAN_ELEMENT_THEORY":"SGP4","DECAY_DATE":null,"EPHEMERIS_TYPE":"0","NORAD_CAT_ID":"47630","LAUNCH_DATE":"2021-02-16","TLE_LINE1":"1 47630U 21012L   22039.32348626  .00001108  00000-0  93307-4 0  9992","EPOCH":"2022-02-08T07:45:49.212864","SITE":"AFETR","MEAN_ANOMALY":"301.3842","INCLINATION":"53.0563","FILE":"3295096","ARG_OF_PERICENTER":"58.7290"}];
